[{"OBJECT_NAME":"OBJECT A","OBJECT_ID":"2023-189A","EPOCH":"2026-03-09T22:59:06.381600","MEAN_MOTION":15.32403275,"ECCENTRICITY":0.00094831,"INCLINATION":97.4458,"RA_OF_ASC_NODE":86.5997,"ARG_OF_PERICENTER":249.5377,"MEAN_ANOMALY":110.4847,"EPHEMERIS_TYPE":0,"CLASSIFICATION_TYPE":"U","NORAD_CAT_ID":58502,"ELEMENT_SET_NO":999,"REV_AT_EPOCH":12601,"BSTAR":0.00019874471,"MEAN_MOTION_DOT":6.146e-5,"MEAN_MOTION_DDOT":0},{"OBJECT_NAME":"STARLINK-34637","OBJECT_ID":"2025-147X","EPOCH":"2026-03-09T21:47:06.078336","MEAN_MOTION":15.30225265,"ECCENTRICITY":0.00011304,"INCLINATION":53.1569,"RA_OF_ASC_NODE":241.8392,"ARG_OF_PERICENTER":121.5104,"MEAN_ANOMALY":238.6007,"EPHEMERIS_TYPE":0,"CLASSIFICATION_TYPE":"U","NORAD_CAT_ID":64776,"ELEMENT_SET_NO":999,"REV_AT_EPOCH":3871,"BSTAR":0.00089008304,"MEAN_MOTION_DOT":0.00026116,"MEAN_MOTION_DDOT":0}]
